{
  "norad_id": 66876,
  "name": "STARLINK-35702",
  "history": [
    {
      "epoch": "2026-03-28T18:24:55.510560",
      "apogee_km": 483.91181025230526,
      "perigee_km": 481.9972912659814,
      "latitude_deg": -42.957310464910094,
      "longitude_deg": -138.73832159978338,
      "semi_major_axis_km": 6861.091550759143,
      "eccentricity": 0.00013952,
      "inclination_deg": 42.9987,
      "raan_deg": 235.6902,
      "arg_perigee_deg": 272.1563,
      "mean_anomaly_deg": 87.9129,
      "mean_motion_rev_day": 15.27611575
    }
  ]
}